[{"OBJECT_NAME":"ORBCOMM FM118","OBJECT_ID":"2015-081E","EPOCH":"2026-03-09T11:40:57.402336","MEAN_MOTION":14.58732197,"ECCENTRICITY":0.00039245,"INCLINATION":47.0034,"RA_OF_ASC_NODE":113.1194,"ARG_OF_PERICENTER":286.8765,"MEAN_ANOMALY":73.169,"EPHEMERIS_TYPE":0,"CLASSIFICATION_TYPE":"U","NORAD_CAT_ID":41183,"ELEMENT_SET_NO":999,"REV_AT_EPOCH":54317,"BSTAR":0.00026393443,"MEAN_MOTION_DOT":1.073e-5,"MEAN_MOTION_DDOT":0},{"OBJECT_NAME":"UNKNOWN","OBJECT_ID":"","EPOCH":"2026-02-15T06:28:00.562080","MEAN_MOTION":14.53453444,"ECCENTRICITY":0.0369408,"INCLINATION":66.0766,"RA_OF_ASC_NODE":348.0426,"ARG_OF_PERICENTER":102.1486,"MEAN_ANOMALY":262.125,"EPHEMERIS_TYPE":0,"CLASSIFICATION_TYPE":"U","NORAD_CAT_ID":81947,"ELEMENT_SET_NO":999,"REV_AT_EPOCH":64039,"BSTAR":0.00046514,"MEAN_MOTION_DOT":4.726e-5,"MEAN_MOTION_DDOT":0}]
